{"type": "FeatureCollection", "features": [ {"type": "Feature", "properties": {"norad_id": 40115, "name": "WORLDVIEW-3 (WV-3)", "group": "resource", "lat": 36.44365761279091, "lon": -112.6021529128292, "alt_km": 606.5475282446332, "timestamp": "2025-12-15T07:02:37.271573+00:00", "meta": {"OBJECT_NAME": "WORLDVIEW-3 (WV-3)", "OBJECT_ID": "2014-048A", "EPOCH": "2025-12-14T22:19:07.435488", "MEAN_MOTION": 14.85516678, "ECCENTRICITY": 0.00049509, "INCLINATION": 97.8615, "RA_OF_ASC_NODE": 61.1828, "ARG_OF_PERICENTER": 177.6308, "MEAN_ANOMALY": 182.4932, "EPHEMERIS_TYPE": 0, "CLASSIFICATION_TYPE": "U", "NORAD_CAT_ID": 40115, "ELEMENT_SET_NO": 999, "REV_AT_EPOCH": 61456, "BSTAR": 0.00014867518, "MEAN_MOTION_DOT": 1.23e-05, "MEAN_MOTION_DDOT": 0}, "tle": {"line1": "1 40115U 14048A   25348.92994717  .00001230  00000+0  14868-3 0  9993", "line2": "2 40115  97.8615  61.1828 0004950 177.6308 182.4932 14.85516678614567"}}, "geometry": {"type": "Point", "coordinates": [-112.6021529128292, 36.44365761279091]}}, {"type": "Feature", "properties": {"norad_id": 40118, "name": "GAOFEN-2", "group": "resource", "lat": -80.24907709191893, "lon": 103.789136522447, "alt_km": 640.7001941331346, "timestamp": "2025-12-15T07:02:37.271583+00:00", "meta": {"OBJECT_NAME": "GAOFEN-2", "OBJECT_ID": "2014-049A", "EPOCH": "2025-12-14T23:18:56.090592", "MEAN_MOTION": 14.80613631, "ECCENTRICITY": 0.00086473, "INCLINATION": 98.0386, "RA_OF_ASC_NODE": 48.1436, "ARG_OF_PERICENTER": 106.565, "MEAN_ANOMALY": 253.6512, "EPHEMERIS_TYPE": 0, "CLASSIFICATION_TYPE": "U", "NORAD_CAT_ID": 40118, "ELEMENT_SET_NO": 999, "REV_AT_EPOCH": 61197, "BSTAR": 9.0857001e-05, "MEAN_MOTION_DOT": 6.44e-06, "MEAN_MOTION_DDOT": 0}, "tle": {"line1": "1 40118U 14049A   25348.97148253  .00000644  00000+0  90857-4 0  9999", "line2": "2 40118  98.0386  48.1436 0008647 106.5650 253.6512 14.80613631611975"}}, "geometry": {"type": "Point", "coordinates": [103.789136522447, -80.24907709191893]}}, {"type": "Feature", "properties": {"norad_id": 40143, "name": "YAOGAN-21", "group": "resource", "lat": -81.68132061725721, "lon": 92.00887622621272, "alt_km": 505.24578747050055, "timestamp": "2025-12-15T07:02:37.271593+00:00", "meta": {"OBJECT_NAME": "YAOGAN-21", "OBJECT_ID": "2014-053A", "EPOCH": "2025-12-14T23:32:20.511744", "MEAN_MOTION": 15.23706363, "ECCENTRICITY": 0.00096055, "INCLINATION": 97.1766, "RA_OF_ASC_NODE": 32.1961, "ARG_OF_PERICENTER": 34.4162, "MEAN_ANOMALY": 325.7696, "EPHEMERIS_TYPE": 0, "CLASSIFICATION_TYPE": "U", "NORAD_CAT_ID": 40143, "ELEMENT_SET_NO": 999, "REV_AT_EPOCH": 62688, "BSTAR": 0.00018482774, "MEAN_MOTION_DOT": 4.375e-05, "MEAN_MOTION_DDOT": 0}, "tle": {"line1": "1 40143U 14053A   25348.98079296  .00004375  00000+0  18483-3 0  9992", "line2": "2 40143  97.1766  32.1961 0009605  34.4162 325.7696 15.23706363626886"}}, "geometry": {"type": "Point", "coordinates": [92.00887622621272, -81.68132061725721]}}, {"type": "Feature", "properties": {"norad_id": 40275, "name": "YAOGAN-22", "group": "resource", "lat": -1.2834299264032676, "lon": 132.9925192397428, "alt_km": 1206.7721177890699, "timestamp": "2025-12-15T07:02:37.271603+00:00", "meta": {"OBJECT_NAME": "YAOGAN-22", "OBJECT_ID": "2014-063A", "EPOCH": "2025-12-14T21:55:26.853600", "MEAN_MOTION": 13.15522727, "ECCENTRICITY": 0.0005964, "INCLINATION": 100.7422, "RA_OF_ASC_NODE": 132.3637, "ARG_OF_PERICENTER": 242.8772, "MEAN_ANOMALY": 117.1732, "EPHEMERIS_TYPE": 0, "CLASSIFICATION_TYPE": "U", "NORAD_CAT_ID": 40275, "ELEMENT_SET_NO": 999, "REV_AT_EPOCH": 53558, "BSTAR": 6.8907954e-05, "MEAN_MOTION_DOT": -2.1e-07, "MEAN_MOTION_DDOT": 0}, "tle": {"line1": "1 40275U 14063A   25348.91350525 -.00000021  00000+0  68908-4 0  9992", "line2": "2 40275 100.7422 132.3637 0005964 242.8772 117.1732 13.15522727535580"}}, "geometry": {"type": "Point", "coordinates": [132.9925192397428, -1.2834299264032676]}}, {"type": "Feature", "properties": {"norad_id": 40298, "name": "ASNARO", "group": "resource", "lat": -74.27263085820942, "lon": 92.52055648488722, "alt_km": 518.3374839533271, "timestamp": "2025-12-15T07:02:37.271613+00:00", "meta": {"OBJECT_NAME": "ASNARO", "OBJECT_ID": "2014-070A", "EPOCH": "2025-12-14T23:28:34.351968", "MEAN_MOTION": 15.19548171, "ECCENTRICITY": 0.00056195, "INCLINATION": 97.365, "RA_OF_ASC_NODE": 64.8696, "ARG_OF_PERICENTER": 115.2371, "MEAN_ANOMALY": 244.9447, "EPHEMERIS_TYPE": 0, "CLASSIFICATION_TYPE": "U", "NORAD_CAT_ID": 40298, "ELEMENT_SET_NO": 999, "REV_AT_EPOCH": 61603, "BSTAR": 0.00033756384, "MEAN_MOTION_DOT": 7.113e-05, "MEAN_MOTION_DDOT": 0}, "tle": {"line1": "1 40298U 14070A   25348.97817537  .00007113  00000+0  33756-3 0  9992", "line2": "2 40298  97.3650  64.8696 0005619 115.2371 244.9447 15.19548171616037"}}, "geometry": {"type": "Point", "coordinates": [92.52055648488722, -74.27263085820942]}}, {"type": "Feature", "properties": {"norad_id": 40310, "name": "YAOGAN-24", "group": "resource", "lat": -38.38348881077752, "lon": -66.09538442790624, "alt_km": 647.5652084322237, "timestamp": "2025-12-15T07:02:37.271623+00:00", "meta": {"OBJECT_NAME": "YAOGAN-24", "OBJECT_ID": "2014-072A", "EPOCH": "2025-12-14T23:32:59.701920", "MEAN_MOTION": 14.7618325, "ECCENTRICITY": 0.00148414, "INCLINATION": 98.1216, "RA_OF_ASC_NODE": 120.0858, "ARG_OF_PERICENTER": 131.1962, "MEAN_ANOMALY": 229.053, "EPHEMERIS_TYPE": 0, "CLASSIFICATION_TYPE": "U", "NORAD_CAT_ID": 40310, "ELEMENT_SET_NO": 999, "REV_AT_EPOCH": 59654, "BSTAR": 0.00015560092, "MEAN_MOTION_DOT": 1.025e-05, "MEAN_MOTION_DDOT": 0}, "tle": {"line1": "1 40310U 14072A   25348.98124655  .00001025  00000+0  15560-3 0  9991", "line2": "2 40310  98.1216 120.0858 0014841 131.1962 229.0530 14.76183250596549"}}, "geometry": {"type": "Point", "coordinates": [-66.09538442790624, -38.38348881077752]}}, {"type": "Feature", "properties": {"norad_id": 40336, "name": "CBERS 4", "group": "resource", "lat": -53.431954310111344, "lon": 58.61545289802685, "alt_km": 781.4720561334543, "timestamp": "2025-12-15T07:02:37.271633+00:00", "meta": {"OBJECT_NAME": "CBERS 4", "OBJECT_ID": "2014-079A", "EPOCH": "2025-12-14T22:55:54.920064", "MEAN_MOTION": 14.35518685, "ECCENTRICITY": 0.00016905, "INCLINATION": 98.3308, "RA_OF_ASC_NODE": 46.8965, "ARG_OF_PERICENTER": 109.4567, "MEAN_ANOMALY": 250.6802, "EPHEMERIS_TYPE": 0, "CLASSIFICATION_TYPE": "U", "NORAD_CAT_ID": 40336, "ELEMENT_SET_NO": 999, "REV_AT_EPOCH": 57752, "BSTAR": 7.5205069e-05, "MEAN_MOTION_DOT": 1.74e-06, "MEAN_MOTION_DDOT": 0}, "tle": {"line1": "1 40336U 14079A   25348.95549676  .00000174  00000+0  75205-4 0  9994", "line2": "2 40336  98.3308  46.8965 0001690 109.4567 250.6802 14.35518685577520"}}, "geometry": {"type": "Point", "coordinates": [58.61545289802685, -53.431954310111344]}}, {"type": "Feature", "properties": {"norad_id": 40362, "name": "YAOGAN-26", "group": "resource", "lat": 46.58977083045231, "lon": 177.40954980577646, "alt_km": 445.32734261912447, "timestamp": "2025-12-15T07:02:37.271644+00:00", "meta": {"OBJECT_NAME": "YAOGAN-26", "OBJECT_ID": "2014-088A", "EPOCH": "2025-12-14T22:40:06.426912", "MEAN_MOTION": 15.3938964, "ECCENTRICITY": 0.00058769, "INCLINATION": 97.0645, "RA_OF_ASC_NODE": 349.54, "ARG_OF_PERICENTER": 22.8619, "MEAN_ANOMALY": 337.2888, "EPHEMERIS_TYPE": 0, "CLASSIFICATION_TYPE": "U", "NORAD_CAT_ID": 40362, "ELEMENT_SET_NO": 999, "REV_AT_EPOCH": 60928, "BSTAR": 0.00040815838, "MEAN_MOTION_DOT": 0.00015906, "MEAN_MOTION_DDOT": 0}, "tle": {"line1": "1 40362U 14088A   25348.94451883  .00015906  00000+0  40816-3 0  9992", "line2": "2 40362  97.0645 349.5400 0005876  22.8619 337.2888 15.39389640609289"}}, "geometry": {"type": "Point", "coordinates": [177.40954980577646, 46.58977083045231]}}, {"type": "Feature", "properties": {"norad_id": 40376, "name": "SMAP", "group": "resource", "lat": 43.429587325023256, "lon": -13.795815600552729, "alt_km": 678.1539228801348, "timestamp": "2025-12-15T07:02:37.271654+00:00", "meta": {"OBJECT_NAME": "SMAP", "OBJECT_ID": "2015-003A", "EPOCH": "2025-12-14T22:38:17.245824", "MEAN_MOTION": 14.63347622, "ECCENTRICITY": 0.00012113, "INCLINATION": 98.1291, "RA_OF_ASC_NODE": 353.6353, "ARG_OF_PERICENTER": 89.9122, "MEAN_ANOMALY": 270.2219, "EPHEMERIS_TYPE": 0, "CLASSIFICATION_TYPE": "U", "NORAD_CAT_ID": 40376, "ELEMENT_SET_NO": 999, "REV_AT_EPOCH": 58067, "BSTAR": 0.00012498172, "MEAN_MOTION_DOT": 5.99e-06, "MEAN_MOTION_DDOT": 0}, "tle": {"line1": "1 40376U 15003A   25348.94325516  .00000599  00000+0  12498-3 0  9995", "line2": "2 40376  98.1291 353.6353 0001211  89.9122 270.2219 14.63347622580673"}}, "geometry": {"type": "Point", "coordinates": [-13.795815600552729, 43.429587325023256]}}, {"type": "Feature", "properties": {"norad_id": 40536, "name": "KOMPSAT-3A", "group": "resource", "lat": 62.84699411722007, "lon": 159.03261866864895, "alt_km": 424.62100084295525, "timestamp": "2025-12-15T07:02:37.271664+00:00", "meta": {"OBJECT_NAME": "KOMPSAT-3A", "OBJECT_ID": "2015-014A", "EPOCH": "2025-12-14T22:45:57.820032", "MEAN_MOTION": 15.44033472, "ECCENTRICITY": 0.00051125, "INCLINATION": 97.6784, "RA_OF_ASC_NODE": 323.4174, "ARG_OF_PERICENTER": 121.9169, "MEAN_ANOMALY": 238.2576, "EPHEMERIS_TYPE": 0, "CLASSIFICATION_TYPE": "U", "NORAD_CAT_ID": 40536, "ELEMENT_SET_NO": 999, "REV_AT_EPOCH": 59329, "BSTAR": 0.00031231251, "MEAN_MOTION_DOT": 0.00014171, "MEAN_MOTION_DDOT": 0}, "tle": {"line1": "1 40536U 15014A   25348.94858588  .00014171  00000+0  31231-3 0  9992", "line2": "2 40536  97.6784 323.4174 0005112 121.9169 238.2576 15.44033472593297"}}, "geometry": {"type": "Point", "coordinates": [159.03261866864895, 62.84699411722007]}}]}